[{"OBJECT_NAME":"JILIN-1 05","OBJECT_ID":"2017-074B","EPOCH":"2026-03-09T21:56:30.612480","MEAN_MOTION":15.3245271,"ECCENTRICITY":0.00045948,"INCLINATION":97.4781,"RA_OF_ASC_NODE":173.8936,"ARG_OF_PERICENTER":206.4038,"MEAN_ANOMALY":153.6971,"EPHEMERIS_TYPE":0,"CLASSIFICATION_TYPE":"U","NORAD_CAT_ID":43023,"ELEMENT_SET_NO":999,"REV_AT_EPOCH":45879,"BSTAR":0.00026108793,"MEAN_MOTION_DOT":8.104e-5,"MEAN_MOTION_DDOT":0},{"OBJECT_NAME":"STARLINK-1226","OBJECT_ID":"2020-012BD","EPOCH":"2026-03-09T22:42:57.676896","MEAN_MOTION":15.30192115,"ECCENTRICITY":0.00012465,"INCLINATION":53.1609,"RA_OF_ASC_NODE":357.4259,"ARG_OF_PERICENTER":109.2355,"MEAN_ANOMALY":250.878,"EPHEMERIS_TYPE":0,"CLASSIFICATION_TYPE":"U","NORAD_CAT_ID":45229,"ELEMENT_SET_NO":999,"REV_AT_EPOCH":33545,"BSTAR":1.2652625e-5,"MEAN_MOTION_DOT":1.6e-7,"MEAN_MOTION_DDOT":0}]
